0 FENGYUN 1C DEB
1 30458U 99025AFV 13267.19101196  .01039358  00000-0  84422-1 0  8777
2 30458 098.6100 352.3375 0093155 155.4854 263.5795 14.93615142326520
0 FENGYUN 1C DEB
1 30458U 99025AFV 13267.53831545  .01042368  00000-0  83520-1 0  8787
2 30458 098.6099 352.7166 0090885 154.1126 331.7721 14.94280925326574
0 FENGYUN 1C DEB
1 30458U 99025AFV 13268.80903240  .01156726  00000-0  86425-1 0  8792
2 30458 098.6100 354.1129 0081782 151.0049 333.7872 14.97228793326766
0 FENGYUN 1C DEB
1 30458U 99025AFV 13269.19740103  .01096523  00000-0  80867-1 0  8806
2 30458 098.6101 354.5407 0079792 149.9423 267.5201 14.97994921326820
0 FENGYUN 1C DEB
1 30458U 99025AFV 13269.52072073  .01272423  00000-0  98267-1 0  8816
2 30458 098.6104 354.8915 0078716 154.5192 206.0519 14.99085142326873
0 FENGYUN 1C DEB
1 30458U 99025AFV 13269.54373307  .01186103  00000-0  85882-1 0  8810
2 30458 098.6104 354.9232 0077197 149.7793 334.7790 14.98611568326877
0 FENGYUN 1C DEB
1 30458U 99025AFV 13269.93116432  .01146125  00000-0  81707-1 0  8820
2 30458 098.6109 355.3508 0074087 148.9087 265.2703 14.99474853326939
0 FENGYUN 1C DEB
1 30458U 99025AFV 13270.47862758  .01305075  00000-0  91242-1 0  8837
2 30458 098.6096 355.9571 0070257 147.0931 341.7981 15.00508999327013
0 FENGYUN 1C DEB
1 30458U 99025AFV 13270.81111495  .01319707  00000-0  91075-1 0  8842
2 30458 098.6097 356.3264 0067299 147.6275 336.7074 15.01116677327068
0 FENGYUN 1C DEB
1 30458U 99025AFV 13271.47815729  .01319830  00000-0  88179-1 0  8855
2 30458 098.6097 357.0684 0064610 144.0163 344.7586 15.02465422327167
0 FENGYUN 1C DEB
1 30458U 99025AFV 13271.74334216  .01294558  00000-0  84635-1 0  8865
2 30458 098.6093 357.3627 0062030 144.3058 338.3099 15.02957209327205
0 FENGYUN 1C DEB
1 30458U 99025AFV 13272.19722019  .01294975  00000-0  82655-1 0  8871
2 30458 098.6117 357.8625 0059766 141.8618 276.0901 15.03954607327278
0 FENGYUN 1C DEB
1 30458U 99025AFV 13272.47649755  .01448254  00000-0  91855-1 0  8881
2 30458 098.6119 358.1725 0057045 141.2883 348.1950 15.04471197327310
0 FENGYUN 1C DEB
1 30458U 99025AFV 13273.73900812  .01639368  00000-0  96449-1 0  8898
2 30458 098.6106 359.5831 0048335 137.5304 352.3345 15.07180056327507
0 FENGYUN 1C DEB
1 30458U 99025AFV 13274.19573400  .01538024  00000-0  88514-1 0  8901
2 30458 098.6106 000.0952 0045610 135.5499 312.1701 15.08304406327570
0 FENGYUN 1C DEB
1 30458U 99025AFV 13274.71010110  .01407415  00000-0  78069-1 0  8917
2 30458 098.6100 000.6698 0048629 133.8394 226.6675 15.09822804327651
0 FENGYUN 1C DEB
1 30458U 99025AFV 13274.86022552  .01970593  00000-0  10796+0 0  8920
2 30458 098.6089 000.8412 0041458 132.3770 323.7685 15.09942465327676
0 FENGYUN 1C DEB
1 30458U 99025AFV 13275.18495903  .02045922  00000-0  10931+0 0  8932
2 30458 098.6085 001.2073 0038784 131.0290 290.1014 15.10795187327729
0 FENGYUN 1C DEB
1 30458U 99025AFV 13275.32061948  .04528426  00000-0  23078+0 0  8940
2 30458 098.6037 001.3629 0037400 130.2862 308.6713 15.11967241327740
0 FENGYUN 1C DEB
1 30458U 99025AFV 13275.32061948  .04528426  00000-0  23078+0 0  8951
2 30458 098.6037 001.3629 0037400 130.2862 308.6713 15.11967241327740
0 FENGYUN 1C DEB
1 30458U 99025AFV 13276.84896317  .03302841  00000-0  13490+0 0  8996
2 30458 098.6031 003.0926 0021605 115.7661 023.6420 15.20084295327971
0 FENGYUN 1C DEB
1 30458U 99025AFV 13276.97114794  .03488203  00000-0  13931+0 0  9002
2 30458 098.6043 003.2337 0018502 118.8531 329.0622 15.20662591327994
0 FENGYUN 1C DEB
1 30458U 99025AFV 13277.16894127  .02873398  00000-0  11366+0 0  9012
2 30458 098.6045 003.4603 0017768 114.7246 335.8713 15.21778857328020
0 FENGYUN 1C DEB
1 30458U 99025AFV 13280.22839555  .05185600  00000-0  11541+0 0  9028
2 30458 098.6055 006.9951 0010847 025.0490 337.2766 15.38832926328481
0 FENGYUN 1C DEB
1 30458U 99025AFV 13280.81192606  .17003521  00000-0  29554+0 0  9030
2 30458 098.5893 007.6895 0019178 012.3172 347.8536 15.44265561328571
